[{"OBJECT_NAME":"STARLINK-31285","OBJECT_ID":"2024-049P","EPOCH":"2026-03-08T14:32:16.578816","MEAN_MOTION":15.27592029,"ECCENTRICITY":0.00018928,"INCLINATION":42.9972,"RA_OF_ASC_NODE":149.3678,"ARG_OF_PERICENTER":158.6691,"MEAN_ANOMALY":201.424,"EPHEMERIS_TYPE":0,"CLASSIFICATION_TYPE":"U","NORAD_CAT_ID":59244,"ELEMENT_SET_NO":999,"REV_AT_EPOCH":11223,"BSTAR":-8.1423415e-5,"MEAN_MOTION_DOT":-2.503e-5,"MEAN_MOTION_DDOT":0},{"OBJECT_NAME":"COSMOS 2535 DEB","OBJECT_ID":"2019-039M","EPOCH":"2026-03-08T03:25:35.903424","MEAN_MOTION":15.28322551,"ECCENTRICITY":0.0014917,"INCLINATION":97.5619,"RA_OF_ASC_NODE":139.2722,"ARG_OF_PERICENTER":329.0964,"MEAN_ANOMALY":30.9396,"EPHEMERIS_TYPE":0,"CLASSIFICATION_TYPE":"U","NORAD_CAT_ID":44641,"ELEMENT_SET_NO":999,"REV_AT_EPOCH":35167,"BSTAR":0.0011539757,"MEAN_MOTION_DOT":0.0003196,"MEAN_MOTION_DDOT":0}]
